BEIDOU-3S M1S-C58
1 40749U 15037B   23124.36434171 -.00000060  00000+0  00000+0 0  9996
2 40749  55.7329 340.9086 0005623 353.4542 180.9530  1.86232988 52885
